STARLINK-37069          
1 68158U 26049S   26083.91667824 -.01926255  00000+0 -10473-1 0  9998
2 68158  97.2771 103.9060 0001233  66.2530 337.1852 15.82871381  3065
STARLINK-37053          
1 68159U 26049T   26083.91667824 -.01946754  00000+0 -10546-1 0  9996
2 68159  97.2771 103.9076 0001236  54.7160 352.8380 15.82981573  3062
STARLINK-36306          
1 68160U 26049U   26083.91667824 -.01993928  00000+0 -10782-1 0  9995
2 68160  97.2762 103.9080 0001548  75.6645 335.9712 15.83093934  3073
STARLINK-37057          
1 68161U 26049V   26083.91667824 -.01894907  00000+0 -10363-1 0  9998
2 68161  97.2775 103.9037 0001473  65.0460 334.3760 15.82693359  3066
STARLINK-37013          
1 68162U 26049W   26083.91667824 -.01966636  00000+0 -10528-1 0  9991
2 68162  97.2757 103.9160 0001533  60.6184   7.7904 15.83261991  3060
STARLINK-36958          
1 68163U 26049X   26083.91667824 -.02013198  00000+0 -10887-1 0  9997
2 68163  97.2761 103.9126 0001446  66.4255 353.7228 15.83125679  3069
STARLINK-37002          
1 68164U 26049Y   26083.91667824 -.01980277  00000+0 -10699-1 0  9999
2 68164  97.2768 103.9114 0001549  67.1581 348.7838 15.83089739  3065
STARLINK-36971          
1 68165U 26049Z   26083.91667824 -.01973226  00000+0 -10599-1 0  9995
2 68165  97.2759 103.9147 0001380  65.0056 359.2431 15.83202980  3060
STARLINK-36273          
1 68166U 26049AA  26083.91667824 -.01938047  00000+0 -10312-1 0  9991
2 68166  97.2755 103.9184 0001571  58.8980  13.6057 15.83342388  3079
STARLINK-36969          
1 68167U 26050A   26083.91667824  .00019405  00000+0  10164-3 0  9996
2 68167  53.1591 205.5307 0000783  68.3853 245.3268 15.80871509  2890
STARLINK-36984          
1 68168U 26050B   26083.91667824  .00013555  00000+0  72084-4 0  9997
2 68168  53.1592 205.5219 0001291  74.0412 243.9360 15.80881157  2891
STARLINK-37077          
1 68169U 26050C   26083.91667824  .00007484  00000+0  41415-4 0  9996
2 68169  53.1593 205.5129 0000982 106.7638 215.4893 15.80878380  2891
STARLINK-37003          
1 68170U 26050D   26083.91667824  .00009815  00000+0  53204-4 0  9997
2 68170  53.1591 205.5042 0000503 100.0504 226.4802 15.80874323  2898
STARLINK-37034          
1 68171U 26050E   26083.91667824 -.00009971  00000+0 -46998-4 0  9995
2 68171  53.1592 205.4952 0001151  89.5431 241.2510 15.80889487  2897
STARLINK-37031          
1 68172U 26050F   26083.91667824  .00030615  00000+0  15818-3 0  9999
2 68172  53.1592 205.4860 0000631 102.8242 232.2562 15.80861550  2895
STARLINK-37076          
1 68173U 26050G   26083.91667824  .00034062  00000+0  17558-3 0  9993
2 68173  53.1592 205.4777 0001308  90.8941 248.4638 15.80854423  2891
