[{"OBJECT_NAME":"STARLINK-37069","OBJECT_ID":"2026-049S","EPOCH":"2026-03-24T22:00:00.999936","MEAN_MOTION":15.82871381,"ECCENTRICITY":0.00012339,"INCLINATION":97.2771,"RA_OF_ASC_NODE":103.906,"ARG_OF_PERICENTER":66.253,"MEAN_ANOMALY":337.1852,"EPHEMERIS_TYPE":0,"CLASSIFICATION_TYPE":"U","NORAD_CAT_ID":68158,"ELEMENT_SET_NO":999,"REV_AT_EPOCH":306,"BSTAR":-0.010473179,"MEAN_MOTION_DOT":-0.01926255,"MEAN_MOTION_DDOT":0},{"OBJECT_NAME":"STARLINK-37053","OBJECT_ID":"2026-049T","EPOCH":"2026-03-24T22:00:00.999936","MEAN_MOTION":15.82981573,"ECCENTRICITY":0.00012368,"INCLINATION":97.2771,"RA_OF_ASC_NODE":103.9076,"ARG_OF_PERICENTER":54.716,"MEAN_ANOMALY":352.838,"EPHEMERIS_TYPE":0,"CLASSIFICATION_TYPE":"U","NORAD_CAT_ID":68159,"ELEMENT_SET_NO":999,"REV_AT_EPOCH":306,"BSTAR":-0.010546337,"MEAN_MOTION_DOT":-0.01946754,"MEAN_MOTION_DDOT":0},{"OBJECT_NAME":"STARLINK-36306","OBJECT_ID":"2026-049U","EPOCH":"2026-03-24T22:00:00.999936","MEAN_MOTION":15.83093934,"ECCENTRICITY":0.00015481,"INCLINATION":97.2762,"RA_OF_ASC_NODE":103.908,"ARG_OF_PERICENTER":75.6645,"MEAN_ANOMALY":335.9712,"EPHEMERIS_TYPE":0,"CLASSIFICATION_TYPE":"U","NORAD_CAT_ID":68160,"ELEMENT_SET_NO":999,"REV_AT_EPOCH":307,"BSTAR":-0.010782112,"MEAN_MOTION_DOT":-0.01993928,"MEAN_MOTION_DDOT":0},{"OBJECT_NAME":"STARLINK-37057","OBJECT_ID":"2026-049V","EPOCH":"2026-03-24T22:00:00.999936","MEAN_MOTION":15.82693359,"ECCENTRICITY":0.00014732,"INCLINATION":97.2775,"RA_OF_ASC_NODE":103.9037,"ARG_OF_PERICENTER":65.046,"MEAN_ANOMALY":334.376,"EPHEMERIS_TYPE":0,"CLASSIFICATION_TYPE":"U","NORAD_CAT_ID":68161,"ELEMENT_SET_NO":999,"REV_AT_EPOCH":306,"BSTAR":-0.010363157,"MEAN_MOTION_DOT":-0.01894907,"MEAN_MOTION_DDOT":0},{"OBJECT_NAME":"STARLINK-37013","OBJECT_ID":"2026-049W","EPOCH":"2026-03-24T22:00:00.999936","MEAN_MOTION":15.83261991,"ECCENTRICITY":0.00015333,"INCLINATION":97.2757,"RA_OF_ASC_NODE":103.916,"ARG_OF_PERICENTER":60.6184,"MEAN_ANOMALY":7.7904,"EPHEMERIS_TYPE":0,"CLASSIFICATION_TYPE":"U","NORAD_CAT_ID":68162,"ELEMENT_SET_NO":999,"REV_AT_EPOCH":306,"BSTAR":-0.010527703,"MEAN_MOTION_DOT":-0.01966636,"MEAN_MOTION_DDOT":0},{"OBJECT_NAME":"STARLINK-36958","OBJECT_ID":"2026-049X","EPOCH":"2026-03-24T22:00:00.999936","MEAN_MOTION":15.83125679,"ECCENTRICITY":0.00014464,"INCLINATION":97.2761,"RA_OF_ASC_NODE":103.9126,"ARG_OF_PERICENTER":66.4255,"MEAN_ANOMALY":353.7228,"EPHEMERIS_TYPE":0,"CLASSIFICATION_TYPE":"U","NORAD_CAT_ID":68163,"ELEMENT_SET_NO":999,"REV_AT_EPOCH":306,"BSTAR":-0.010887149,"MEAN_MOTION_DOT":-0.02013198,"MEAN_MOTION_DDOT":0},{"OBJECT_NAME":"STARLINK-37002","OBJECT_ID":"2026-049Y","EPOCH":"2026-03-24T22:00:00.999936","MEAN_MOTION":15.83089739,"ECCENTRICITY":0.00015491,"INCLINATION":97.2768,"RA_OF_ASC_NODE":103.9114,"ARG_OF_PERICENTER":67.1581,"MEAN_ANOMALY":348.7838,"EPHEMERIS_TYPE":0,"CLASSIFICATION_TYPE":"U","NORAD_CAT_ID":68164,"ELEMENT_SET_NO":999,"REV_AT_EPOCH":306,"BSTAR":-0.010698964,"MEAN_MOTION_DOT":-0.01980277,"MEAN_MOTION_DDOT":0},{"OBJECT_NAME":"STARLINK-36971","OBJECT_ID":"2026-049Z","EPOCH":"2026-03-24T22:00:00.999936","MEAN_MOTION":15.8320298,"ECCENTRICITY":0.000138,"INCLINATION":97.2759,"RA_OF_ASC_NODE":103.9147,"ARG_OF_PERICENTER":65.0056,"MEAN_ANOMALY":359.2431,"EPHEMERIS_TYPE":0,"CLASSIFICATION_TYPE":"U","NORAD_CAT_ID":68165,"ELEMENT_SET_NO":999,"REV_AT_EPOCH":306,"BSTAR":-0.010599075,"MEAN_MOTION_DOT":-0.01973226,"MEAN_MOTION_DDOT":0},{"OBJECT_NAME":"STARLINK-36273","OBJECT_ID":"2026-049AA","EPOCH":"2026-03-24T22:00:00.999936","MEAN_MOTION":15.83342388,"ECCENTRICITY":0.00015711,"INCLINATION":97.2755,"RA_OF_ASC_NODE":103.9184,"ARG_OF_PERICENTER":58.898,"MEAN_ANOMALY":13.6057,"EPHEMERIS_TYPE":0,"CLASSIFICATION_TYPE":"U","NORAD_CAT_ID":68166,"ELEMENT_SET_NO":999,"REV_AT_EPOCH":307,"BSTAR":-0.010312004,"MEAN_MOTION_DOT":-0.01938047,"MEAN_MOTION_DDOT":0},{"OBJECT_NAME":"STARLINK-36969","OBJECT_ID":"2026-050A","EPOCH":"2026-03-24T22:00:00.999936","MEAN_MOTION":15.80871509,"ECCENTRICITY":7.838e-5,"INCLINATION":53.1591,"RA_OF_ASC_NODE":205.5307,"ARG_OF_PERICENTER":68.3853,"MEAN_ANOMALY":245.3268,"EPHEMERIS_TYPE":0,"CLASSIFICATION_TYPE":"U","NORAD_CAT_ID":68167,"ELEMENT_SET_NO":999,"REV_AT_EPOCH":289,"BSTAR":0.00010163624,"MEAN_MOTION_DOT":0.00019405,"MEAN_MOTION_DDOT":0},{"OBJECT_NAME":"STARLINK-36984","OBJECT_ID":"2026-050B","EPOCH":"2026-03-24T22:00:00.999936","MEAN_MOTION":15.80881157,"ECCENTRICITY":0.00012912,"INCLINATION":53.1592,"RA_OF_ASC_NODE":205.5219,"ARG_OF_PERICENTER":74.0412,"MEAN_ANOMALY":243.936,"EPHEMERIS_TYPE":0,"CLASSIFICATION_TYPE":"U","NORAD_CAT_ID":68168,"ELEMENT_SET_NO":999,"REV_AT_EPOCH":289,"BSTAR":7.2084188e-5,"MEAN_MOTION_DOT":0.00013555,"MEAN_MOTION_DDOT":0},{"OBJECT_NAME":"STARLINK-37077","OBJECT_ID":"2026-050C","EPOCH":"2026-03-24T22:00:00.999936","MEAN_MOTION":15.8087838,"ECCENTRICITY":9.82e-5,"INCLINATION":53.1593,"RA_OF_ASC_NODE":205.5129,"ARG_OF_PERICENTER":106.7638,"MEAN_ANOMALY":215.4893,"EPHEMERIS_TYPE":0,"CLASSIFICATION_TYPE":"U","NORAD_CAT_ID":68169,"ELEMENT_SET_NO":999,"REV_AT_EPOCH":289,"BSTAR":4.1414733e-5,"MEAN_MOTION_DOT":7.484e-5,"MEAN_MOTION_DDOT":0},{"OBJECT_NAME":"STARLINK-37003","OBJECT_ID":"2026-050D","EPOCH":"2026-03-24T22:00:00.999936","MEAN_MOTION":15.80874323,"ECCENTRICITY":5.037e-5,"INCLINATION":53.1591,"RA_OF_ASC_NODE":205.5042,"ARG_OF_PERICENTER":100.0504,"MEAN_ANOMALY":226.4802,"EPHEMERIS_TYPE":0,"CLASSIFICATION_TYPE":"U","NORAD_CAT_ID":68170,"ELEMENT_SET_NO":999,"REV_AT_EPOCH":289,"BSTAR":5.3203548e-5,"MEAN_MOTION_DOT":9.815e-5,"MEAN_MOTION_DDOT":0},{"OBJECT_NAME":"STARLINK-37034","OBJECT_ID":"2026-050E","EPOCH":"2026-03-24T22:00:00.999936","MEAN_MOTION":15.80889487,"ECCENTRICITY":0.00011511,"INCLINATION":53.1592,"RA_OF_ASC_NODE":205.4952,"ARG_OF_PERICENTER":89.5431,"MEAN_ANOMALY":241.251,"EPHEMERIS_TYPE":0,"CLASSIFICATION_TYPE":"U","NORAD_CAT_ID":68171,"ELEMENT_SET_NO":999,"REV_AT_EPOCH":289,"BSTAR":-4.6998178e-5,"MEAN_MOTION_DOT":-9.971e-5,"MEAN_MOTION_DDOT":0},{"OBJECT_NAME":"STARLINK-37031","OBJECT_ID":"2026-050F","EPOCH":"2026-03-24T22:00:00.999936","MEAN_MOTION":15.8086155,"ECCENTRICITY":6.319e-5,"INCLINATION":53.1592,"RA_OF_ASC_NODE":205.486,"ARG_OF_PERICENTER":102.8242,"MEAN_ANOMALY":232.2562,"EPHEMERIS_TYPE":0,"CLASSIFICATION_TYPE":"U","NORAD_CAT_ID":68172,"ELEMENT_SET_NO":999,"REV_AT_EPOCH":289,"BSTAR":0.00015817882,"MEAN_MOTION_DOT":0.00030615,"MEAN_MOTION_DDOT":0},{"OBJECT_NAME":"STARLINK-37076","OBJECT_ID":"2026-050G","EPOCH":"2026-03-24T22:00:00.999936","MEAN_MOTION":15.80854423,"ECCENTRICITY":0.00013089,"INCLINATION":53.1592,"RA_OF_ASC_NODE":205.4777,"ARG_OF_PERICENTER":90.8941,"MEAN_ANOMALY":248.4638,"EPHEMERIS_TYPE":0,"CLASSIFICATION_TYPE":"U","NORAD_CAT_ID":68173,"ELEMENT_SET_NO":999,"REV_AT_EPOCH":289,"BSTAR":0.00017558252,"MEAN_MOTION_DOT":0.00034062,"MEAN_MOTION_DDOT":0}]
